[{"OBJECT_NAME":"IRIDIUM 7 [-]","OBJECT_ID":"1997-020B","EPOCH":"2022-08-18T10:38:11.538240","MEAN_MOTION":14.34526437,"ECCENTRICITY":0.0002101,"INCLINATION":86.3925,"RA_OF_ASC_NODE":249.5947,"ARG_OF_PERICENTER":89.1947,"MEAN_ANOMALY":270.949,"EPHEMERIS_TYPE":0,"CLASSIFICATION_TYPE":"U","NORAD_CAT_ID":24793,"ELEMENT_SET_NO":999,"REV_AT_EPOCH":32363,"BSTAR":7.2024e-5,"MEAN_MOTION_DOT":2.23e-6,"MEAN_MOTION_DDOT":0},{"OBJECT_NAME":"IRIDIUM 5 [-]","OBJECT_ID":"1997-020D","EPOCH":"2022-08-18T09:58:21.576000","MEAN_MOTION":14.81557351,"ECCENTRICITY":0.0134665,"INCLINATION":86.4006,"RA_OF_ASC_NODE":194.0772,"ARG_OF_PERICENTER":204.4617,"MEAN_ANOMALY":155.0179,"EPHEMERIS_TYPE":0,"CLASSIFICATION_TYPE":"U","NORAD_CAT_ID":24795,"ELEMENT_SET_NO":999,"REV_AT_EPOCH":33187,"BSTAR":0.00012687,"MEAN_MOTION_DOT":1.197e-5,"MEAN_MOTION_DDOT":0},{"OBJECT_NAME":"IRIDIUM 4 [-]","OBJECT_ID":"1997-020E","EPOCH":"2022-08-18T10:54:53.862048","MEAN_MOTION":14.3543071,"ECCENTRICITY":0.0002318,"INCLINATION":86.3923,"RA_OF_ASC_NODE":247.1538,"ARG_OF_PERICENTER":85.0971,"MEAN_ANOMALY":275.049,"EPHEMERIS_TYPE":0,"CLASSIFICATION_TYPE":"U","NORAD_CAT_ID":24796,"ELEMENT_SET_NO":999,"REV_AT_EPOCH":32411,"BSTAR":6.5448e-5,"MEAN_MOTION_DOT":2.08e-6,"MEAN_MOTION_DDOT":0},{"OBJECT_NAME":"IRIDIUM 914 [-]","OBJECT_ID":"1997-030A","EPOCH":"2022-08-18T10:27:05.569632","MEAN_MOTION":14.39152683,"ECCENTRICITY":0.0003496,"INCLINATION":86.3895,"RA_OF_ASC_NODE":258.7465,"ARG_OF_PERICENTER":61.6562,"MEAN_ANOMALY":298.4988,"EPHEMERIS_TYPE":0,"CLASSIFICATION_TYPE":"U","NORAD_CAT_ID":24836,"ELEMENT_SET_NO":999,"REV_AT_EPOCH":32047,"BSTAR":7.917e-5,"MEAN_MOTION_DOT":2.65e-6,"MEAN_MOTION_DDOT":0},{"OBJECT_NAME":"IRIDIUM 16 [-]","OBJECT_ID":"1997-030F","EPOCH":"2022-08-18T04:51:31.059648","MEAN_MOTION":14.37104356,"ECCENTRICITY":0.0002029,"INCLINATION":86.4005,"RA_OF_ASC_NODE":279.0919,"ARG_OF_PERICENTER":160.2217,"MEAN_ANOMALY":199.906,"EPHEMERIS_TYPE":0,"CLASSIFICATION_TYPE":"U","NORAD_CAT_ID":24841,"ELEMENT_SET_NO":999,"REV_AT_EPOCH":31843,"BSTAR":7.5937e-5,"MEAN_MOTION_DOT":2.45e-6,"MEAN_MOTION_DDOT":0},{"OBJECT_NAME":"IRIDIUM 911 [-]","OBJECT_ID":"1997-030G","EPOCH":"2022-08-18T09:15:44.170560","MEAN_MOTION":14.45440896,"ECCENTRICITY":0.0012397,"INCLINATION":86.4431,"RA_OF_ASC_NODE":278.6507,"ARG_OF_PERICENTER":303.8878,"MEAN_ANOMALY":56.1144,"EPHEMERIS_TYPE":0,"CLASSIFICATION_TYPE":"U","NORAD_CAT_ID":24842,"ELEMENT_SET_NO":999,"REV_AT_EPOCH":32563,"BSTAR":7.7452e-5,"MEAN_MOTION_DOT":2.93e-6,"MEAN_MOTION_DDOT":0},{"OBJECT_NAME":"IRIDIUM 17 [-]","OBJECT_ID":"1997-034B","EPOCH":"2022-08-18T07:19:28.742592","MEAN_MOTION":14.36163137,"ECCENTRICITY":0.0003471,"INCLINATION":86.3972,"RA_OF_ASC_NODE":308.8243,"ARG_OF_PERICENTER":121.3224,"MEAN_ANOMALY":238.8313,"EPHEMERIS_TYPE":0,"CLASSIFICATION_TYPE":"U","NORAD_CAT_ID":24870,"ELEMENT_SET_NO":999,"REV_AT_EPOCH":31512,"BSTAR":7.8274e-5,"MEAN_MOTION_DOT":2.48e-6,"MEAN_MOTION_DDOT":0},{"OBJECT_NAME":"IRIDIUM 920 [-]","OBJECT_ID":"1997-034C","EPOCH":"2022-08-18T13:55:22.698912","MEAN_MOTION":14.39875935,"ECCENTRICITY":0.0009647,"INCLINATION":86.3956,"RA_OF_ASC_NODE":290.3633,"ARG_OF_PERICENTER":241.9087,"MEAN_ANOMALY":118.1137,"EPHEMERIS_TYPE":0,"CLASSIFICATION_TYPE":"U","NORAD_CAT_ID":24871,"ELEMENT_SET_NO":999,"REV_AT_EPOCH":31777,"BSTAR":5.7724e-5,"MEAN_MOTION_DOT":2.01e-6,"MEAN_MOTION_DDOT":0},{"OBJECT_NAME":"IRIDIUM 921 [-]","OBJECT_ID":"1997-034E","EPOCH":"2022-08-18T11:37:58.777248","MEAN_MOTION":15.16107246,"ECCENTRICITY":0.0004935,"INCLINATION":86.3875,"RA_OF_ASC_NODE":251.2269,"ARG_OF_PERICENTER":228.611,"MEAN_ANOMALY":131.4707,"EPHEMERIS_TYPE":0,"CLASSIFICATION_TYPE":"U","NORAD_CAT_ID":24873,"ELEMENT_SET_NO":999,"REV_AT_EPOCH":37329,"BSTAR":0.00022619,"MEAN_MOTION_DOT":4.39e-5,"MEAN_MOTION_DDOT":0},{"OBJECT_NAME":"IRIDIUM 26 [-]","OBJECT_ID":"1997-043A","EPOCH":"2022-08-18T10:16:39.571392","MEAN_MOTION":14.35608291,"ECCENTRICITY":0.0002088,"INCLINATION":86.4017,"RA_OF_ASC_NODE":184.1169,"ARG_OF_PERICENTER":85.0433,"MEAN_ANOMALY":275.1002,"EPHEMERIS_TYPE":0,"CLASSIFICATION_TYPE":"U","NORAD_CAT_ID":24903,"ELEMENT_SET_NO":999,"REV_AT_EPOCH":30836,"BSTAR":9.5444e-5,"MEAN_MOTION_DOT":2.95e-6,"MEAN_MOTION_DDOT":0},{"OBJECT_NAME":"IRIDIUM 22 [-]","OBJECT_ID":"1997-043E","EPOCH":"2022-08-18T09:30:02.928672","MEAN_MOTION":14.34537544,"ECCENTRICITY":0.0002313,"INCLINATION":86.4018,"RA_OF_ASC_NODE":186.8446,"ARG_OF_PERICENTER":84.5615,"MEAN_ANOMALY":275.5845,"EPHEMERIS_TYPE":0,"CLASSIFICATION_TYPE":"U","NORAD_CAT_ID":24907,"ELEMENT_SET_NO":999,"REV_AT_EPOCH":30850,"BSTAR":9.1001e-5,"MEAN_MOTION_DOT":2.76e-6,"MEAN_MOTION_DDOT":0},{"OBJECT_NAME":"DUMMY MASS 1 [-]","OBJECT_ID":"1997-048A","EPOCH":"2022-08-18T11:32:55.555584","MEAN_MOTION":14.85407559,"ECCENTRICITY":0.0006309,"INCLINATION":86.3312,"RA_OF_ASC_NODE":252.6133,"ARG_OF_PERICENTER":186.1236,"MEAN_ANOMALY":173.9912,"EPHEMERIS_TYPE":0,"CLASSIFICATION_TYPE":"U","NORAD_CAT_ID":24925,"ELEMENT_SET_NO":999,"REV_AT_EPOCH":35161,"BSTAR":2.2557e-5,"MEAN_MOTION_DOT":2.22e-6,"MEAN_MOTION_DDOT":0},{"OBJECT_NAME":"DUMMY MASS 2 [-]","OBJECT_ID":"1997-048B","EPOCH":"2022-08-18T11:28:46.219008","MEAN_MOTION":14.85173408,"ECCENTRICITY":0.000665,"INCLINATION":86.331,"RA_OF_ASC_NODE":254.0431,"ARG_OF_PERICENTER":199.595,"MEAN_ANOMALY":160.502,"EPHEMERIS_TYPE":0,"CLASSIFICATION_TYPE":"U","NORAD_CAT_ID":24926,"ELEMENT_SET_NO":999,"REV_AT_EPOCH":35141,"BSTAR":2.2451e-5,"MEAN_MOTION_DOT":2.2e-6,"MEAN_MOTION_DDOT":0},{"OBJECT_NAME":"IRIDIUM 29 [-]","OBJECT_ID":"1997-051A","EPOCH":"2022-08-18T16:19:45.286464","MEAN_MOTION":14.3497368,"ECCENTRICITY":0.0002444,"INCLINATION":86.3967,"RA_OF_ASC_NODE":216.8261,"ARG_OF_PERICENTER":82.3112,"MEAN_ANOMALY":277.8362,"EPHEMERIS_TYPE":0,"CLASSIFICATION_TYPE":"U","NORAD_CAT_ID":24944,"ELEMENT_SET_NO":999,"REV_AT_EPOCH":30499,"BSTAR":9.2069e-5,"MEAN_MOTION_DOT":2.82e-6,"MEAN_MOTION_DDOT":0},{"OBJECT_NAME":"IRIDIUM 33 [-]","OBJECT_ID":"1997-051C","EPOCH":"2022-08-18T16:34:06.567456","MEAN_MOTION":14.33849659,"ECCENTRICITY":0.0007047,"INCLINATION":86.3882,"RA_OF_ASC_NODE":216.1747,"ARG_OF_PERICENTER":193.6731,"MEAN_ANOMALY":166.4274,"EPHEMERIS_TYPE":0,"CLASSIFICATION_TYPE":"U","NORAD_CAT_ID":24946,"ELEMENT_SET_NO":999,"REV_AT_EPOCH":30460,"BSTAR":5.1412e-5,"MEAN_MOTION_DOT":1.63e-6,"MEAN_MOTION_DDOT":0},{"OBJECT_NAME":"IRIDIUM 28 [-]","OBJECT_ID":"1997-051E","EPOCH":"2022-08-18T18:28:01.483968","MEAN_MOTION":14.35907738,"ECCENTRICITY":0.0002019,"INCLINATION":86.3975,"RA_OF_ASC_NODE":214.9001,"ARG_OF_PERICENTER":94.7133,"MEAN_ANOMALY":265.4294,"EPHEMERIS_TYPE":0,"CLASSIFICATION_TYPE":"U","NORAD_CAT_ID":24948,"ELEMENT_SET_NO":999,"REV_AT_EPOCH":30548,"BSTAR":8.6658e-5,"MEAN_MOTION_DOT":2.71e-6,"MEAN_MOTION_DDOT":0},{"OBJECT_NAME":"IRIDIUM 36 [-]","OBJECT_ID":"1997-056C","EPOCH":"2022-08-18T11:33:42.435360","MEAN_MOTION":14.35988335,"ECCENTRICITY":0.0002477,"INCLINATION":86.3934,"RA_OF_ASC_NODE":246.6736,"ARG_OF_PERICENTER":92.5616,"MEAN_ANOMALY":267.5864,"EPHEMERIS_TYPE":0,"CLASSIFICATION_TYPE":"U","NORAD_CAT_ID":24967,"ELEMENT_SET_NO":999,"REV_AT_EPOCH":30380,"BSTAR":7.0419e-5,"MEAN_MOTION_DOT":2.24e-6,"MEAN_MOTION_DDOT":0}]