IRIDIUM 7 [-]           
1 24793U 97020B   22230.44318910  .00000223  00000+0  72024-4 0  9997
2 24793  86.3925 249.5947 0002101  89.1947 270.9490 14.34526437323639
IRIDIUM 5 [-]           
1 24795U 97020D   22230.41552750  .00001197  00000+0  12687-3 0  9997
2 24795  86.4006 194.0772 0134665 204.4617 155.0179 14.81557351331872
IRIDIUM 4 [-]           
1 24796U 97020E   22230.45479007  .00000208  00000+0  65448-4 0  9991
2 24796  86.3923 247.1538 0002318  85.0971 275.0490 14.35430710324111
IRIDIUM 914 [-]         
1 24836U 97030A   22230.43548113  .00000265  00000+0  79170-4 0  9990
2 24836  86.3895 258.7465 0003496  61.6562 298.4988 14.39152683320475
IRIDIUM 16 [-]          
1 24841U 97030F   22230.20244282  .00000245  00000+0  75937-4 0  9996
2 24841  86.4005 279.0919 0002029 160.2217 199.9060 14.37104356318430
IRIDIUM 911 [-]         
1 24842U 97030G   22230.38592790  .00000293  00000+0  77452-4 0  9993
2 24842  86.4431 278.6507 0012397 303.8878  56.1144 14.45440896325637
IRIDIUM 17 [-]          
1 24870U 97034B   22230.30519378  .00000248  00000+0  78274-4 0  9994
2 24870  86.3972 308.8243 0003471 121.3224 238.8313 14.36163137315121
IRIDIUM 920 [-]         
1 24871U 97034C   22230.58012383  .00000201  00000+0  57724-4 0  9995
2 24871  86.3956 290.3633 0009647 241.9087 118.1137 14.39875935317775
IRIDIUM 921 [-]         
1 24873U 97034E   22230.48470807  .00004390  00000+0  22619-3 0  9992
2 24873  86.3875 251.2269 0004935 228.6110 131.4707 15.16107246373291
IRIDIUM 26 [-]          
1 24903U 97043A   22230.42823578  .00000295  00000+0  95444-4 0  9994
2 24903  86.4017 184.1169 0002088  85.0433 275.1002 14.35608291308363
IRIDIUM 22 [-]          
1 24907U 97043E   22230.39586723  .00000276  00000+0  91001-4 0  9996
2 24907  86.4018 186.8446 0002313  84.5615 275.5845 14.34537544308508
DUMMY MASS 1 [-]        
1 24925U 97048A   22230.48119856  .00000222  00000+0  22557-4 0  9991
2 24925  86.3312 252.6133 0006309 186.1236 173.9912 14.85407559351610
DUMMY MASS 2 [-]        
1 24926U 97048B   22230.47831272  .00000220  00000+0  22451-4 0  9995
2 24926  86.3310 254.0431 0006650 199.5950 160.5020 14.85173408351419
IRIDIUM 29 [-]          
1 24944U 97051A   22230.68038526  .00000282  00000+0  92069-4 0  9993
2 24944  86.3967 216.8261 0002444  82.3112 277.8362 14.34973680304996
IRIDIUM 33 [-]          
1 24946U 97051C   22230.69035379  .00000163  00000+0  51412-4 0  9994
2 24946  86.3882 216.1747 0007047 193.6731 166.4274 14.33849659304603
IRIDIUM 28 [-]          
1 24948U 97051E   22230.76946162  .00000271  00000+0  86658-4 0  9995
2 24948  86.3975 214.9001 0002019  94.7133 265.4294 14.35907738305482
IRIDIUM 36 [-]          
1 24967U 97056C   22230.48174115  .00000224  00000+0  70419-4 0  9997
2 24967  86.3934 246.6736 0002477  92.5616 267.5864 14.35988335303807
